{"type":"FeatureCollection","features":[{"type":"Feature","properties":{"id":"kr-1835848","name":"Seoul","group":"korea","kind":"survey_area","description":"Regional locator for the supplied Korean inscription list. It is not an exact artifact location. Individual visits and itinerary order remain unconfirmed.","source":"https://www.geonames.org/1835848","items":["Pyongyang city-wall inscription \u2014 Ewha Womans University Museum","King Jinheung monument of Bukhansan"]},"geometry":{"type":"Point","coordinates":[126.9784,37.566]}},{"type":"Feature","properties":{"id":"kr-1845033","name":"Chungju","group":"korea","kind":"survey_area","description":"Regional locator for the supplied Korean inscription list. It is not an exact artifact location. Individual visits and itinerary order remain unconfirmed.","source":"https://www.geonames.org/1845033","items":["Goguryeo stele of Chungju","Beopgyeong stele at the Jeongtosa temple site"]},"geometry":{"type":"Point","coordinates":[127.9287,36.97666]}},{"type":"Feature","properties":{"id":"kr-1842616","name":"Gongju","group":"korea","kind":"survey_area","description":"Regional locator for the supplied Korean inscription list. It is not an exact artifact location. Individual visits and itinerary order remain unconfirmed.","source":"https://www.geonames.org/1842616","items":["King Muryeong tomb epitaphs and land-purchase deed"]},"geometry":{"type":"Point","coordinates":[127.12472,36.45556]}},{"type":"Feature","properties":{"id":"kr-1839071","name":"Pohang","group":"korea","kind":"survey_area","description":"Regional locator for the supplied Korean inscription list. It is not an exact artifact location. Individual visits and itinerary order remain unconfirmed.","source":"https://www.geonames.org/1839071","items":["Jungseong-ri Silla stele","Naengsu-ri Silla stele"]},"geometry":{"type":"Point","coordinates":[129.36481,36.02917]}},{"type":"Feature","properties":{"id":"kr-1833763","name":"Uljin","group":"korea","kind":"survey_area","description":"Regional locator for the supplied Korean inscription list. It is not an exact artifact location. Individual visits and itinerary order remain unconfirmed.","source":"https://www.geonames.org/1833763","items":["Bongpyeong-ri Silla stele"]},"geometry":{"type":"Point","coordinates":[129.39999,36.99294]}},{"type":"Feature","properties":{"id":"kr-1841603","name":"Gyeongju","group":"korea","kind":"survey_area","description":"Regional locator for the supplied Korean inscription list. It is not an exact artifact location. Individual visits and itinerary order remain unconfirmed.","source":"https://www.geonames.org/1841603","items":["Namsan New Fortress stelae","Imsin oath stone"]},"geometry":{"type":"Point","coordinates":[129.21167,35.84278]}},{"type":"Feature","properties":{"id":"kr-6903078","name":"Changnyeong","group":"korea","kind":"survey_area","description":"Regional locator for the supplied Korean inscription list. It is not an exact artifact location. Individual visits and itinerary order remain unconfirmed.","source":"https://www.geonames.org/6903078","items":["King Jinheung territorial monument"]},"geometry":{"type":"Point","coordinates":[128.49506,35.54145]}},{"type":"Feature","properties":{"id":"kr-1835329","name":"Daegu","group":"korea","kind":"survey_area","description":"Regional locator for the supplied Korean inscription list. It is not an exact artifact location. Individual visits and itinerary order remain unconfirmed.","source":"https://www.geonames.org/1835329","items":["Musul-year embankment inscription"]},"geometry":{"type":"Point","coordinates":[128.59111,35.87028]}},{"type":"Feature","properties":{"id":"kr-11863735","name":"Hadong","group":"korea","kind":"survey_area","description":"Regional locator for the supplied Korean inscription list. It is not an exact artifact location. Individual visits and itinerary order remain unconfirmed.","source":"https://www.geonames.org/11863735","items":["Jingam Seonsa stele at Ssanggyesa"]},"geometry":{"type":"Point","coordinates":[127.75147,35.068]}},{"type":"Feature","properties":{"id":"kr-1835447","name":"Boryeong","group":"korea","kind":"survey_area","description":"Regional locator for the supplied Korean inscription list. It is not an exact artifact location. Individual visits and itinerary order remain unconfirmed.","source":"https://www.geonames.org/1835447","items":["Nanghye Hwasang stele at the Seongjusa temple site"]},"geometry":{"type":"Point","coordinates":[126.59772,36.34931]}},{"type":"Feature","properties":{"id":"kr-1832743","name":"Yeoju","group":"korea","kind":"survey_area","description":"Regional locator for the supplied Korean inscription list. It is not an exact artifact location. Individual visits and itinerary order remain unconfirmed.","source":"https://www.geonames.org/1832743","items":["Wonjong Daesa stele at the Godalsa temple site"]},"geometry":{"type":"Point","coordinates":[127.63389,37.29583]}},{"type":"Feature","properties":{"id":"kr-1845759","name":"Cheonan","group":"korea","kind":"survey_area","description":"Regional locator for the supplied Korean inscription list. It is not an exact artifact location. Individual visits and itinerary order remain unconfirmed.","source":"https://www.geonames.org/1845759","items":["Bongseon Honggyeongsa commemorative stele"]},"geometry":{"type":"Point","coordinates":[127.1522,36.8065]}},{"type":"Feature","properties":{"id":"kr-1833105","name":"Wonju","group":"korea","kind":"survey_area","description":"Regional locator for the supplied Korean inscription list. It is not an exact artifact location. Individual visits and itinerary order remain unconfirmed.","source":"https://www.geonames.org/1833105","items":["Jigwang Guksa stele at the Beopcheonsa temple site"]},"geometry":{"type":"Point","coordinates":[127.94528,37.35139]}},{"type":"Feature","properties":{"id":"jp-tokyo","name":"Tokyo","group":"japan","kind":"reported_city","description":"Named by Junguang Jia as a city visited for collecting materials. City-level position; individual collection venues and visit order are not specified.","source":"Natural Earth 10m Populated Places","items":[]},"geometry":{"type":"Point","coordinates":[139.7494616,35.6869628]}},{"type":"Feature","properties":{"id":"jp-nagoya","name":"Nagoya","group":"japan","kind":"reported_city","description":"Named by Junguang Jia as a city visited for collecting materials. City-level position; individual collection venues and visit order are not specified.","source":"Natural Earth 10m Populated Places","items":[]},"geometry":{"type":"Point","coordinates":[136.9130456,35.1569434]}},{"type":"Feature","properties":{"id":"jp-kyoto","name":"Kyoto","group":"japan","kind":"reported_city","description":"Named by Junguang Jia as a city visited for collecting materials. City-level position; individual collection venues and visit order are not specified.","source":"Natural Earth 10m Populated Places","items":[]},"geometry":{"type":"Point","coordinates":[135.7480521,35.0319381]}},{"type":"Feature","properties":{"id":"jp-osaka","name":"Osaka","group":"japan","kind":"reported_city","description":"Named by Junguang Jia as a city visited for collecting materials. City-level position; individual collection venues and visit order are not specified.","source":"Natural Earth 10m Populated Places","items":[]},"geometry":{"type":"Point","coordinates":[135.50375419006232,34.691095244477914]}},{"type":"Feature","properties":{"id":"jp-nara","name":"Nara","group":"japan","kind":"reported_city","description":"Named by Junguang Jia as a city visited for collecting materials. City-level position; individual collection venues and visit order are not specified.","source":"https://www.geonames.org/1855612","items":[]},"geometry":{"type":"Point","coordinates":[135.80485,34.68505]}},{"type":"Feature","properties":{"id":"mn-ulaanbaatar","name":"Ulaanbaatar","group":"mongolia","kind":"reported_city","description":"Reported starting city for the southbound Mongolia journey. Intermediate stops have not been specified.","source":"Natural Earth 10m Populated Places","items":[]},"geometry":{"type":"Point","coordinates":[106.9146699,47.9186193]}},{"type":"Feature","properties":{"id":"mn-yanran","name":"Yanran Inscription","group":"mongolia","kind":"reported_site","description":"Destination reported by Junguang Jia. Position rounded to approximately 1 km for this public overview; not intended for navigating to the monument. The connecting line is schematic.","source":"User-provided coordinates; rounded for public display","items":[]},"geometry":{"type":"Point","coordinates":[104.55,45.18]}}]}