{"type": "FeatureCollection", "features": [
{"type": "Feature", "properties": {"id": "G1", "trip": "china-green", "mode": "ground", "status": "schematic", "note": "Approximate corridor from the sketch; not a GPS track", "source": "Hand-drawn Amap route sketch, affine-registered to city anchors (audit/georeferencing.json); sketch trace G1"}, "geometry": {"type": "LineString", "coordinates": [[112.9922, 34.2359], [111.4834, 35.1936], [108.9552, 35.04], [106.7376, 34.7019], [105.7616, 34.9293], [106.5593, 35.8906], [105.007, 35.6565], [103.276, 37.1638], [102.9197, 38.9712], [102.0327, 38.8773], [100.613, 39.3019], [98.3058, 40.1381], [97.1963, 40.8194], [93.4684, 43.2438], [90.0089, 42.9224], [89.6524, 44.8312], [88.0117, 44.3442], [86.6365, 44.4827], [84.9521, 43.1953], [85.485, 42.4469], [82.8234, 42.6669], [80.118, 42.2701], [80.2525, 40.5169]]}},
{"type": "Feature", "properties": {"id": "G2", "trip": "china-green", "mode": "ground", "status": "schematic", "note": "Approximate corridor from the sketch; not a GPS track", "source": "Hand-drawn Amap route sketch, affine-registered to city anchors (audit/georeferencing.json); sketch trace G2"}, "geometry": {"type": "LineString", "coordinates": [[80.2525, 40.5169], [82.5145, 40.6955], [84.7771, 40.2376], [89.9235, 38.8271], [93.1175, 38.4163], [98.4408, 37.7031], [100.482, 36.5226], [101.6349, 37.1104], [103.8532, 36.4523]]}},
{"type": "Feature", "properties": {"id": "G3", "trip": "china-green", "mode": "ground", "status": "schematic", "note": "Approximate corridor from the sketch; not a GPS track", "source": "Hand-drawn Amap route sketch, affine-registered to city anchors (audit/georeferencing.json); sketch trace G3"}, "geometry": {"type": "LineString", "coordinates": [[103.8532, 36.4523], [103.1891, 34.8119], [104.3876, 33.5231], [105.5416, 32.6244], [104.1232, 31.1811], [102.039, 30.4093], [104.3018, 29.5443], [106.2974, 30.0954], [109.3135, 30.2904], [109.5788, 31.4223], [108.9566, 33.1426], [111.0859, 32.8609], [112.2837, 32.5513], [112.8619, 30.479], [113.5722, 29.5554], [114.4583, 31.0294], [113.9687, 33.3834], [112.9922, 34.2359]]}},
{"type": "Feature", "properties": {"id": "G4", "trip": "china-green", "mode": "ground", "status": "schematic", "note": "Approximate corridor from the sketch; not a GPS track", "source": "Hand-drawn Amap route sketch, affine-registered to city anchors (audit/georeferencing.json); sketch trace G4"}, "geometry": {"type": "LineString", "coordinates": [[121.416, 39.265], [122.8792, 39.9634], [121.9911, 41.2101], [120.4382, 41.6546], [126.914, 41.9538], [128.2444, 42.3005], [130.4614, 43.282], [125.4485, 43.9667], [126.3788, 45.3373]]}},
{"type": "Feature", "properties": {"id": "G5", "trip": "china-green", "mode": "flight", "status": "schematic", "note": "Dashed in the sketch; shown as a flight. Approximate, not a GPS track", "source": "Hand-drawn Amap route sketch, affine-registered to city anchors (audit/georeferencing.json); sketch trace G5"}, "geometry": {"type": "LineString", "coordinates": [[116.3585, 40.3643], [117.6893, 40.2168], [118.8873, 39.7999], [120.2182, 39.4473], [121.416, 39.265]]}},
{"type": "Feature", "properties": {"id": "R1", "trip": "china-red", "mode": "ground", "status": "schematic", "note": "Approximate corridor from the sketch; not a GPS track", "source": "Hand-drawn Amap route sketch, affine-registered to city anchors (audit/georeferencing.json); sketch trace R1"}, "geometry": {"type": "LineString", "coordinates": [[113.3029, 34.0137], [113.9682, 33.9701], [113.5682, 35.0274], [114.4546, 35.9866], [114.4531, 38.0273], [116.3599, 38.5958], [115.9172, 37.5248], [116.9379, 36.8474], [119.1114, 36.825], [121.506, 37.6424], [119.6445, 35.6824], [118.5798, 35.8723], [116.4065, 35.6805], [116.5403, 34.7068], [117.3827, 35.2035], [117.872, 33.3782], [118.7145, 33.773], [119.3347, 34.7859], [118.9363, 33.6606], [117.3406, 32.124], [119.913, 32.5427], [119.8693, 31.6848], [121.555, 31.4411]]}},
{"type": "Feature", "properties": {"id": "R2", "trip": "china-red", "mode": "ground", "status": "schematic", "note": "Approximate corridor from the sketch; not a GPS track", "source": "Hand-drawn Amap route sketch, affine-registered to city anchors (audit/georeferencing.json); sketch trace R2"}, "geometry": {"type": "LineString", "coordinates": [[121.555, 31.4411], [120.8899, 30.9962], [119.16, 31.0153], [119.4269, 30.0254], [121.6448, 29.9243], [121.4679, 29.0826], [120.4486, 27.8935], [119.1615, 28.9544], [117.8305, 29.431], [116.2332, 30.061], [112.9963, 28.5992]]}},
{"type": "Feature", "properties": {"id": "R3", "trip": "china-red", "mode": "ground", "status": "schematic", "note": "Approximate corridor from the sketch; not a GPS track", "source": "Hand-drawn Amap route sketch, affine-registered to city anchors (audit/georeferencing.json); sketch trace R3"}, "geometry": {"type": "LineString", "coordinates": [[112.9963, 28.5992], [113.5745, 26.2065], [114.6827, 27.2563], [116.4119, 28.2893], [118.0536, 27.5307], [117.7438, 26.5531], [119.2963, 26.4169], [117.3903, 24.5698], [116.9915, 23.9719], [114.5967, 23.314], [112.8662, 24.1814], [111.8005, 25.9103], [110.337, 25.5303], [111.4908, 24.799], [111.3583, 23.9174], [111.9798, 23.0614], [111.0929, 22.7472], [112.0691, 22.2471], [111.0936, 21.6866], [110.2064, 21.7791], [108.7419, 22.9781], [109.1851, 23.5396], [108.7854, 24.1891], [108.5632, 24.8332], [102.8853, 25.2986], [104.3499, 24.0804], [102.9308, 23.6538], [101.1998, 25.358], [100.2234, 26.1235]]}},
{"type": "Feature", "properties": {"id": "R4", "trip": "china-red", "mode": "ground", "status": "schematic", "note": "Approximate corridor from the sketch; not a GPS track", "source": "Hand-drawn Amap route sketch, affine-registered to city anchors (audit/georeferencing.json); sketch trace R4"}, "geometry": {"type": "LineString", "coordinates": [[100.2234, 26.1235], [101.864, 26.8932], [102.1292, 28.2572], [105.2794, 26.9719], [106.5657, 26.9964], [106.5651, 27.8958], [104.8786, 29.3075], [105.5876, 30.3318], [107.494, 31.5954], [106.9608, 32.7944], [108.2461, 34.1771], [113.1697, 34.0882]]}},
{"type": "Feature", "properties": {"id": "R5", "trip": "china-red", "mode": "ground", "status": "schematic", "note": "Approximate corridor from the sketch; not a GPS track", "source": "Hand-drawn Amap route sketch, affine-registered to city anchors (audit/georeferencing.json); sketch trace R5"}, "geometry": {"type": "LineString", "coordinates": [[109.9855, 20.4664], [110.8285, 20.0842], [109.8973, 19.6811], [109.3655, 19.0641], [109.4102, 18.4794], [108.7445, 19.03], [108.8772, 19.6105], [109.4538, 19.6035], [110.03, 20.3007]]}},
{"type": "Feature", "properties": {"id": "P1", "trip": "china-purple", "mode": "ground", "status": "schematic", "note": "Approximate corridor from the sketch; not a GPS track", "source": "Hand-drawn Amap route sketch, affine-registered to city anchors (audit/georeferencing.json); sketch trace P1"}, "geometry": {"type": "LineString", "coordinates": [[113.0365, 34.3446], [108.6444, 35.3673], [106.0739, 32.5072], [104.1676, 31.1806], [102.2161, 30.9379], [100.2645, 30.8082], [97.159, 31.6337], [94.4099, 30.2278], [91.6603, 29.5326], [90.8174, 29.6952]]}},
{"type": "Feature", "properties": {"id": "P2", "trip": "china-purple", "mode": "ground", "status": "schematic", "note": "Approximate corridor from the sketch; not a GPS track", "source": "Hand-drawn Amap route sketch, affine-registered to city anchors (audit/georeferencing.json); sketch trace P2"}, "geometry": {"type": "LineString", "coordinates": [[113.0809, 34.3078], [113.3901, 35.9621], [112.1016, 38.8106], [113.2539, 39.9908], [113.0335, 38.2843], [113.4779, 37.1293], [112.991, 35.7877], [112.7259, 34.4207]]}},
{"type": "Feature", "properties": {"id": "P3", "trip": "china-purple", "mode": "ground", "status": "schematic", "note": "Approximate corridor from the sketch; not a GPS track", "source": "Hand-drawn Amap route sketch, affine-registered to city anchors (audit/georeferencing.json); sketch trace P3"}, "geometry": {"type": "LineString", "coordinates": [[112.8149, 34.0919], [112.0627, 31.5828], [111.4876, 29.4254], [112.73, 28.7568], [113.2639, 26.4865], [114.0647, 22.915]]}},
{"type": "Feature", "properties": {"id": "P4-flight", "trip": "china-purple", "mode": "flight", "status": "schematic", "note": "Dashed part of sketch trace P4 (mainland coast to Taiwan), split off at the Taipei end; shown as a flight", "source": "Hand-drawn Amap route sketch, affine-registered to city anchors (audit/georeferencing.json); sketch trace P4"}, "geometry": {"type": "LineString", "coordinates": [[114.1091, 22.8739], [115.3514, 22.3303], [116.5048, 22.1126], [117.7465, 22.5868], [119.0765, 23.5441], [120.4065, 24.5745], [121.4705, 25.3212]]}},
{"type": "Feature", "properties": {"id": "P4-ground", "trip": "china-purple", "mode": "ground", "status": "schematic", "note": "Solid part of sketch trace P4 (within Taiwan); approximate corridor, not a GPS track", "source": "Hand-drawn Amap route sketch, affine-registered to city anchors (audit/georeferencing.json); sketch trace P4"}, "geometry": {"type": "LineString", "coordinates": [[121.4705, 25.3212], [120.9395, 23.4412], [120.4965, 22.5948], [119.9637, 23.4123], [120.6725, 24.7316], [121.6922, 25.5574], [121.9143, 24.957], [121.4274, 23.4759]]}},
{"type": "Feature", "properties": {"id": "P5", "trip": "china-purple", "mode": "flight", "status": "schematic", "note": "Dashed in the sketch; shown as a flight. Approximate, not a GPS track", "source": "Hand-drawn Amap route sketch, affine-registered to city anchors (audit/georeferencing.json); sketch trace P5"}, "geometry": {"type": "LineString", "coordinates": [[88.0117, 44.3442], [91.1156, 45.4705], [95.6833, 46.5315], [99.3641, 47.4013], [102.4687, 47.7607], [104.5532, 48.0087], [104.9531, 47.2629], [106.9963, 44.1374], [108.4614, 42.4562], [109.3497, 41.0008], [109.9274, 39.7531], [107.3111, 38.8243], [105.36, 38.0502], [103.8972, 36.9112]]}},
{"type": "Feature", "properties": {"id": "korea-flight", "trip": "korea", "mode": "flight", "status": "schematic", "note": "Shanghai to Seoul flight; drawn as a schematic arc", "source": "Owner-supplied itinerary"}, "geometry": {"type": "LineString", "coordinates": [[121.43456, 31.2184], [126.9784, 37.566]]}},
{"type": "Feature", "properties": {"id": "japan-flight", "trip": "japan", "mode": "flight", "status": "schematic", "note": "Shanghai to Tokyo flight; drawn as a schematic arc", "source": "Owner-supplied itinerary"}, "geometry": {"type": "LineString", "coordinates": [[121.43456, 31.2184], [139.7494616, 35.6869628]]}},
{"type": "Feature", "properties": {"id": "korea-drive", "trip": "korea", "mode": "ground", "status": "schematic", "note": "Ground route in itinerary order; straight segments between city positions. Yeoju and Wonju are both on the route, but their relative order is not asserted", "source": "Owner-supplied itinerary; city positions mostly from GeoNames"}, "geometry": {"type": "LineString", "coordinates": [[126.9784, 37.566], [127.63389, 37.29583], [127.94528, 37.35139], [127.9287, 36.97666], [127.1522, 36.8065], [127.12472, 36.45556], [126.59772, 36.34931], [127.75147, 35.068], [128.49506, 35.54145], [128.59111, 35.87028], [129.21167, 35.84278], [129.36481, 36.02917], [129.39999, 36.99294], [126.7052, 37.4563]]}},
{"type": "Feature", "properties": {"id": "japan-drive", "trip": "japan", "mode": "ground", "status": "schematic", "note": "Tokyo, Nagoya, Kyoto, Nara, Osaka; straight segments between city positions, not road routing", "source": "Owner-supplied itinerary; city positions from Natural Earth and GeoNames"}, "geometry": {"type": "LineString", "coordinates": [[139.7494616, 35.6869628], [136.9130456, 35.1569434], [135.7480521, 35.0319381], [135.80485, 34.68505], [135.50375419006232, 34.691095244477914]]}},
{"type": "Feature", "properties": {"id": "mongolia-drive", "trip": "mongolia", "mode": "ground", "status": "schematic", "note": "Ground travel from Ulaanbaatar to the Yanran Inscription; one straight schematic segment. The flight to Ulaanbaatar is omitted because its departure city is not recorded", "source": "Owner-supplied endpoints"}, "geometry": {"type": "LineString", "coordinates": [[106.9146699, 47.9186193], [104.55, 45.18]]}}
]}
